start=new Date('2023-06-17T00:00:00.000Z').valueOf();
sats=[{"ARG_OF_PERICENTER":"88.6867","REV_AT_EPOCH":"12766","TIME_SYSTEM":"UTC","OBJECT_NAME":"STARLINK-2149","MEAN_MOTION_DOT":"-0.00007195","TLE_LINE2":"2 47738  53.0542 357.0094 0001482  88.6867 271.4291 15.06377783127661","PERIAPSIS":"546.255","MEAN_ANOMALY":"271.4291","MEAN_ELEMENT_THEORY":"SGP4","ECCENTRICITY":"0.00014820","LAUNCH_DATE":"2021-03-04","APOAPSIS":"548.308","GP_ID":"234093013","REF_FRAME":"TEME","RCS_SIZE":"LARGE","FILE":"3934949","NORAD_CAT_ID":"47738","TLE_LINE1":"1 47738U 21017S   23167.82106872 -.00007195  00000-0 -46488-3 0  9990","SEMIMAJOR_AXIS":"6925.417","ELEMENT_SET_NO":"999","CENTER_NAME":"EARTH","SITE":"AFETR","MEAN_MOTION_DDOT":"0.0000000000000","DECAY_DATE":null,"EPOCH":"2023-06-16T19:42:20.337408","EPHEMERIS_TYPE":"0","MEAN_MOTION":"15.06377783","OBJECT_TYPE":"PAYLOAD","INCLINATION":"53.0542","BSTAR":"-0.00046488000000","PERIOD":"95.594","COUNTRY_CODE":"US","CLASSIFICATION_TYPE":"U","OBJECT_ID":"2021-017S","RA_OF_ASC_NODE":"357.0094"},{"TLE_LINE2":"2 47739  53.0547  22.5287 0000904  80.2561 279.8530 15.06408339127291","MEAN_MOTION_DOT":"-0.00002640","ARG_OF_PERICENTER":"80.2561","REV_AT_EPOCH":"12729","TIME_SYSTEM":"UTC","OBJECT_NAME":"STARLINK-2150","FILE":"3934949","RCS_SIZE":"LARGE","NORAD_CAT_ID":"47739","REF_FRAME":"TEME","GP_ID":"234094261","LAUNCH_DATE":"2021-03-04","APOAPSIS":"547.814","PERIAPSIS":"546.562","MEAN_ANOMALY":"279.8530","MEAN_ELEMENT_THEORY":"SGP4","ECCENTRICITY":"0.00009040","OBJECT_TYPE":"PAYLOAD","INCLINATION":"53.0547","BSTAR":"-0.00015838000000","PERIOD":"95.592","EPOCH":"2023-06-16T15:26:50.098560","EPHEMERIS_TYPE":"0","MEAN_MOTION":"15.06408339","DECAY_DATE":null,"TLE_LINE1":"1 47739U 21017T   23167.64363540 -.00002640  00000-0 -15838-3 0  9993","SEMIMAJOR_AXIS":"6925.323","ELEMENT_SET_NO":"999","CENTER_NAME":"EARTH","SITE":"AFETR","MEAN_MOTION_DDOT":"0.0000000000000","RA_OF_ASC_NODE":"22.5287","OBJECT_ID":"2021-017T","COUNTRY_CODE":"US","CLASSIFICATION_TYPE":"U"},{"TLE_LINE2":"2 47740  53.0544   6.7210 0000875  89.8329 270.2760 15.06417169127521","MEAN_MOTION_DOT":"0.00011877","OBJECT_NAME":"STARLINK-2152","TIME_SYSTEM":"UTC","REV_AT_EPOCH":"12752","ARG_OF_PERICENTER":"89.8329","FILE":"3934949","NORAD_CAT_ID":"47740","RCS_SIZE":"LARGE","GP_ID":"234092749","REF_FRAME":"TEME","APOAPSIS":"547.767","LAUNCH_DATE":"2021-03-04","ECCENTRICITY":"0.00008750","MEAN_ELEMENT_THEORY":"SGP4","PERIAPSIS":"546.555","MEAN_ANOMALY":"270.2760","PERIOD":"95.591","BSTAR":"0.00081449000000","INCLINATION":"53.0544","OBJECT_TYPE":"PAYLOAD","MEAN_MOTION":"15.06417169","EPOCH":"2023-06-16T19:46:14.802816","EPHEMERIS_TYPE":"0","DECAY_DATE":null,"MEAN_MOTION_DDOT":"0.0000000000000","SITE":"AFETR","ELEMENT_SET_NO":"999","CENTER_NAME":"EARTH","SEMIMAJOR_AXIS":"6925.296","TLE_LINE1":"1 47740U 21017U   23167.82378244  .00011877  00000-0  81449-3 0  9993","RA_OF_ASC_NODE":"6.7210","OBJECT_ID":"2021-017U","CLASSIFICATION_TYPE":"U","COUNTRY_CODE":"US"},{"MEAN_MOTION_DOT":"0.00009238","TLE_LINE2":"2 47741  53.0557   6.6598 0000871  80.8444 279.2643 15.06412905127486","REV_AT_EPOCH":"12748","ARG_OF_PERICENTER":"80.8444","OBJECT_NAME":"STARLINK-2154","TIME_SYSTEM":"UTC","REF_FRAME":"TEME","GP_ID":"234093263","RCS_SIZE":"LARGE","FILE":"3934949","NORAD_CAT_ID":"47741","ECCENTRICITY":"0.00008710","MEAN_ELEMENT_THEORY":"SGP4","PERIAPSIS":"546.571","MEAN_ANOMALY":"279.2643","LAUNCH_DATE":"2021-03-04","APOAPSIS":"547.777","EPOCH":"2023-06-16T20:07:28.851168","EPHEMERIS_TYPE":"0","MEAN_MOTION":"15.06412905","INCLINATION":"53.0557","OBJECT_TYPE":"PAYLOAD","PERIOD":"95.591","BSTAR":"0.00063800000000","SEMIMAJOR_AXIS":"6925.309","TLE_LINE1":"1 47741U 21017V   23167.83852837  .00009238  00000-0  63800-3 0  9999","SITE":"AFETR","MEAN_MOTION_DDOT":"0.0000000000000","ELEMENT_SET_NO":"999","CENTER_NAME":"EARTH","DECAY_DATE":null,"OBJECT_ID":"2021-017V","RA_OF_ASC_NODE":"6.6598","COUNTRY_CODE":"US","CLASSIFICATION_TYPE":"U"},{"TLE_LINE2":"2 47742  53.0521 356.8972 0000719 105.7045 254.4023 15.06405365127668","MEAN_MOTION_DOT":"0.00003178","ARG_OF_PERICENTER":"105.7045","REV_AT_EPOCH":"12766","TIME_SYSTEM":"UTC","OBJECT_NAME":"STARLINK-2156","FILE":"3934949","RCS_SIZE":"LARGE","NORAD_CAT_ID":"47742","REF_FRAME":"TEME","GP_ID":"234093513","LAUNCH_DATE":"2021-03-04","APOAPSIS":"547.695","PERIAPSIS":"546.699","MEAN_ANOMALY":"254.4023","MEAN_ELEMENT_THEORY":"SGP4","ECCENTRICITY":"0.00007190","OBJECT_TYPE":"PAYLOAD","INCLINATION":"53.0521","BSTAR":"0.00023207000000","PERIOD":"95.592","EPOCH":"2023-06-16T18:49:11.780832","EPHEMERIS_TYPE":"0","MEAN_MOTION":"15.06405365","DECAY_DATE":null,"TLE_LINE1":"1 47742U 21017W   23167.78416413  .00003178  00000-0  23207-3 0  9994","SEMIMAJOR_AXIS":"6925.332","ELEMENT_SET_NO":"999","CENTER_NAME":"EARTH","SITE":"AFETR","MEAN_MOTION_DDOT":"0.0000000000000","RA_OF_ASC_NODE":"356.8972","OBJECT_ID":"2021-017W","COUNTRY_CODE":"US","CLASSIFICATION_TYPE":"U"},{"RCS_SIZE":"LARGE","FILE":"3934949","NORAD_CAT_ID":"47743","GP_ID":"234093762","REF_FRAME":"TEME","APOAPSIS":"548.055","LAUNCH_DATE":"2021-03-04","ECCENTRICITY":"0.00012270","MEAN_ANOMALY":"275.8559","PERIAPSIS":"546.356","MEAN_ELEMENT_THEORY":"SGP4","TLE_LINE2":"2 47743  53.0541 356.7887 0001227  84.2569 275.8559 15.06402649127643","MEAN_MOTION_DOT":"0.00003703","OBJECT_NAME":"STARLINK-2157","TIME_SYSTEM":"UTC","REV_AT_EPOCH":"12764","ARG_OF_PERICENTER":"84.2569","RA_OF_ASC_NODE":"356.7887","OBJECT_ID":"2021-017X","CLASSIFICATION_TYPE":"U","COUNTRY_CODE":"US","PERIOD":"95.592","BSTAR":"0.00026732000000","INCLINATION":"53.0541","OBJECT_TYPE":"PAYLOAD","MEAN_MOTION":"15.06402649","EPHEMERIS_TYPE":"0","EPOCH":"2023-06-16T19:26:21.244704","DECAY_DATE":null,"SITE":"AFETR","MEAN_MOTION_DDOT":"0.0000000000000","ELEMENT_SET_NO":"999","CENTER_NAME":"EARTH","SEMIMAJOR_AXIS":"6925.340","TLE_LINE1":"1 47743U 21017X   23167.80996811  .00003703  00000-0  26732-3 0  9993"},{"FILE":"3934949","NORAD_CAT_ID":"47744","RCS_SIZE":"LARGE","REF_FRAME":"TEME","GP_ID":"234093249","LAUNCH_DATE":"2021-03-04","APOAPSIS":"547.520","ECCENTRICITY":"0.00004720","PERIAPSIS":"546.866","MEAN_ANOMALY":"255.5902","MEAN_ELEMENT_THEORY":"SGP4","TLE_LINE2":"2 47744  53.0539 356.8598 0000472 104.5139 255.5902 15.06406661127668","MEAN_MOTION_DOT":"0.00020796","REV_AT_EPOCH":"12766","ARG_OF_PERICENTER":"104.5139","OBJECT_NAME":"STARLINK-2158","TIME_SYSTEM":"UTC","RA_OF_ASC_NODE":"356.8598","OBJECT_ID":"2021-017Y","COUNTRY_CODE":"US","CLASSIFICATION_TYPE":"U","INCLINATION":"53.0539","OBJECT_TYPE":"PAYLOAD","PERIOD":"95.592","BSTAR":"0.00141060000000","EPOCH":"2023-06-16T18:47:49.580736","EPHEMERIS_TYPE":"0","MEAN_MOTION":"15.06406661","DECAY_DATE":null,"SEMIMAJOR_AXIS":"6925.328","TLE_LINE1":"1 47744U 21017Y   23167.78321274  .00020796  00000-0  14106-2 0  9998","MEAN_MOTION_DDOT":"0.0000000000000","SITE":"AFETR","ELEMENT_SET_NO":"999","CENTER_NAME":"EARTH"},{"REV_AT_EPOCH":"12747","ARG_OF_PERICENTER":"102.7637","OBJECT_NAME":"STARLINK-2159","TIME_SYSTEM":"UTC","MEAN_MOTION_DOT":"0.00010596","TLE_LINE2":"2 47745  53.0542   6.7541 0001021 102.7637 257.3466 15.06410401127477","ECCENTRICITY":"0.00010210","PERIAPSIS":"546.475","MEAN_ELEMENT_THEORY":"SGP4","MEAN_ANOMALY":"257.3466","LAUNCH_DATE":"2021-03-04","APOAPSIS":"547.889","REF_FRAME":"TEME","GP_ID":"234092764","NORAD_CAT_ID":"47745","FILE":"3934949","RCS_SIZE":"LARGE","TLE_LINE1":"1 47745U 21017Z   23167.81643899  .00010596  00000-0  72893-3 0  9998","SEMIMAJOR_AXIS":"6925.317","MEAN_MOTION_DDOT":"0.0000000000000","SITE":"AFETR","ELEMENT_SET_NO":"999","CENTER_NAME":"EARTH","DECAY_DATE":null,"EPOCH":"2023-06-16T19:35:40.328736","EPHEMERIS_TYPE":"0","MEAN_MOTION":"15.06410401","INCLINATION":"53.0542","OBJECT_TYPE":"PAYLOAD","PERIOD":"95.591","BSTAR":"0.00072893000000","COUNTRY_CODE":"US","CLASSIFICATION_TYPE":"U","OBJECT_ID":"2021-017Z","RA_OF_ASC_NODE":"6.7541"},{"CLASSIFICATION_TYPE":"U","COUNTRY_CODE":"US","RA_OF_ASC_NODE":"6.7871","OBJECT_ID":"2021-017AA","DECAY_DATE":null,"MEAN_MOTION_DDOT":"0.0000000000000","SITE":"AFETR","ELEMENT_SET_NO":"999","CENTER_NAME":"EARTH","TLE_LINE1":"1 47746U 21017AA  23167.80903843  .00008520  00000-0  58997-3 0  9999","SEMIMAJOR_AXIS":"6925.313","PERIOD":"95.591","BSTAR":"0.00058997000000","INCLINATION":"53.0548","OBJECT_TYPE":"PAYLOAD","MEAN_MOTION":"15.06411619","EPOCH":"2023-06-16T19:25:00.920352","EPHEMERIS_TYPE":"0","APOAPSIS":"547.875","LAUNCH_DATE":"2021-03-04","ECCENTRICITY":"0.00010060","PERIAPSIS":"546.481","MEAN_ELEMENT_THEORY":"SGP4","MEAN_ANOMALY":"265.4758","FILE":"3934949","NORAD_CAT_ID":"47746","RCS_SIZE":"LARGE","GP_ID":"234093014","REF_FRAME":"TEME","OBJECT_NAME":"STARLINK-2160","TIME_SYSTEM":"UTC","REV_AT_EPOCH":"12746","ARG_OF_PERICENTER":"94.6346","TLE_LINE2":"2 47746  53.0548   6.7871 0001006  94.6346 265.4758 15.06411619127464","MEAN_MOTION_DOT":"0.00008520"},{"BSTAR":"0.00106210000000","PERIOD":"95.592","OBJECT_TYPE":"PAYLOAD","INCLINATION":"53.0544","MEAN_MOTION":"15.06395736","EPHEMERIS_TYPE":"0","EPOCH":"2023-06-16T19:21:02.973888","DECAY_DATE":null,"ELEMENT_SET_NO":"999","CENTER_NAME":"EARTH","MEAN_MOTION_DDOT":"0.0000000000000","SITE":"AFETR","TLE_LINE1":"1 47747U 21017AB  23167.80628442  .00015572  00000-0  10621-2 0  9995","SEMIMAJOR_AXIS":"6925.362","RA_OF_ASC_NODE":"356.8056","OBJECT_ID":"2021-017AB","CLASSIFICATION_TYPE":"U","COUNTRY_CODE":"US","TLE_LINE2":"2 47747  53.0544 356.8056 0000839  74.1532 285.9549 15.06395736127644","MEAN_MOTION_DOT":"0.00015572","TIME_SYSTEM":"UTC","OBJECT_NAME":"STARLINK-2161","ARG_OF_PERICENTER":"74.1532","REV_AT_EPOCH":"12764","RCS_SIZE":"LARGE","FILE":"3934949","NORAD_CAT_ID":"47747","REF_FRAME":"TEME","GP_ID":"234094262","APOAPSIS":"547.808","LAUNCH_DATE":"2021-03-04","MEAN_ANOMALY":"285.9549","PERIAPSIS":"546.646","MEAN_ELEMENT_THEORY":"SGP4","ECCENTRICITY":"0.00008390"}];
